{
  "type": "FeatureCollection",
  "features": [
    {
      "type": "Feature",
      "properties": {
        "norad_id": 34459,
        "name": "COSMOS 2251 DEB",
        "group": "cosmos-2251-debris",
        "lat": -22.708445904464124,
        "lon": 81.63160003463695,
        "alt_km": 967.1608500602715,
        "timestamp": "2025-12-12T07:43:20.910149+00:00",
        "meta_object_name": "COSMOS 2251 DEB",
        "meta_object_id": "1993-036TC",
        "meta_epoch": "2025-12-11T11:52:51.727296",
        "meta_mean_motion": 14.00497208,
        "meta_eccentricity": 0.01920563,
        "meta_inclination": 74.0793,
        "meta_ra_of_asc_node": 256.1998,
        "meta_arg_of_pericenter": 326.2605,
        "meta_mean_anomaly": 32.6421,
        "meta_ephemeris_type": 0,
        "meta_classification_type": "U",
        "meta_norad_cat_id": 34459,
        "meta_element_set_no": 999,
        "meta_rev_at_epoch": 85694,
        "meta_bstar": 0.00083850226,
        "meta_mean_motion_dot": 1.436e-05,
        "meta_mean_motion_ddot": 0,
        "tle_line1": "1 34459U 93036TC  25345.49504314  .00001436  00000+0  83850-3 0  9995",
        "tle_line2": "2 34459  74.0793 256.1998 0192056 326.2605  32.6421 14.00497208856949"
      },
      "geometry": {
        "type": "Point",
        "coordinates": [
          81.63160003463695,
          -22.708445904464124
        ]
      }
    },
    {
      "type": "Feature",
      "properties": {
        "norad_id": 34464,
        "name": "COSMOS 2251 DEB",
        "group": "cosmos-2251-debris",
        "lat": 24.16493623401635,
        "lon": -108.24097950043034,
        "alt_km": 486.17546514160404,
        "timestamp": "2025-12-12T07:43:20.910160+00:00",
        "meta_object_name": "COSMOS 2251 DEB",
        "meta_object_id": "1993-036TH",
        "meta_epoch": "2025-12-11T09:01:50.444256",
        "meta_mean_motion": 15.26756078,
        "meta_eccentricity": 0.00161263,
        "meta_inclination": 73.9889,
        "meta_ra_of_asc_node": 81.1694,
        "meta_arg_of_pericenter": 259.3082,
        "meta_mean_anomaly": 100.6303,
        "meta_ephemeris_type": 0,
        "meta_classification_type": "U",
        "meta_norad_cat_id": 34464,
        "meta_element_set_no": 999,
        "meta_rev_at_epoch": 89819,
        "meta_bstar": 0.0054428677,
        "meta_mean_motion_dot": 0.00146564,
        "meta_mean_motion_ddot": 0,
        "tle_line1": "1 34464U 93036TH  25345.37627829  .00146564  00000+0  54429-2 0  9996",
        "tle_line2": "2 34464  73.9889  81.1694 0016126 259.3082 100.6303 15.26756078898196"
      },
      "geometry": {
        "type": "Point",
        "coordinates": [
          -108.24097950043034,
          24.16493623401635
        ]
      }
    },
    {
      "type": "Feature",
      "properties": {
        "norad_id": 34468,
        "name": "COSMOS 2251 DEB",
        "group": "cosmos-2251-debris",
        "lat": 40.27652290020044,
        "lon": -76.07205661595376,
        "alt_km": 761.0480048366562,
        "timestamp": "2025-12-12T07:43:20.910170+00:00",
        "meta_object_name": "COSMOS 2251 DEB",
        "meta_object_id": "1993-036TM",
        "meta_epoch": "2025-12-11T19:28:17.538240",
        "meta_mean_motion": 14.47621059,
        "meta_eccentricity": 0.00763639,
        "meta_inclination": 74.0129,
        "meta_ra_of_asc_node": 118.9433,
        "meta_arg_of_pericenter": 264.0661,
        "meta_mean_anomaly": 95.179,
        "meta_ephemeris_type": 0,
        "meta_classification_type": "U",
        "meta_norad_cat_id": 34468,
        "meta_element_set_no": 999,
        "meta_rev_at_epoch": 88448,
        "meta_bstar": 0.00058701115,
        "meta_mean_motion_dot": 2.214e-05,
        "meta_mean_motion_ddot": 0,
        "tle_line1": "1 34468U 93036TM  25345.81131410  .00002214  00000+0  58701-3 0  9996",
        "tle_line2": "2 34468  74.0129 118.9433 0076363 264.0661  95.1790 14.47621059884481"
      },
      "geometry": {
        "type": "Point",
        "coordinates": [
          -76.07205661595376,
          40.27652290020044
        ]
      }
    },
    {
      "type": "Feature",
      "properties": {
        "norad_id": 34472,
        "name": "COSMOS 2251 DEB",
        "group": "cosmos-2251-debris",
        "lat": -70.51704443865722,
        "lon": 45.06938556332158,
        "alt_km": 849.8177860181004,
        "timestamp": "2025-12-12T07:43:20.910181+00:00",
        "meta_object_name": "COSMOS 2251 DEB",
        "meta_object_id": "1993-036TR",
        "meta_epoch": "2025-12-10T17:33:33.413472",
        "meta_mean_motion": 13.70324681,
        "meta_eccentricity": 0.03280455,
        "meta_inclination": 74.083,
        "meta_ra_of_asc_node": 101.446,
        "meta_arg_of_pericenter": 232.9036,
        "meta_mean_anomaly": 124.1688,
        "meta_ephemeris_type": 0,
        "meta_classification_type": "U",
        "meta_norad_cat_id": 34472,
        "meta_element_set_no": 999,
        "meta_rev_at_epoch": 83699,
        "meta_bstar": 0.0010864797,
        "meta_mean_motion_dot": 1.379e-05,
        "meta_mean_motion_ddot": 0,
        "tle_line1": "1 34472U 93036TR  25344.73163673  .00001379  00000+0  10865-2 0  9996",
        "tle_line2": "2 34472  74.0830 101.4460 0328045 232.9036 124.1688 13.70324681836997"
      },
      "geometry": {
        "type": "Point",
        "coordinates": [
          45.06938556332158,
          -70.51704443865722
        ]
      }
    },
    {
      "type": "Feature",
      "properties": {
        "norad_id": 34474,
        "name": "COSMOS 2251 DEB",
        "group": "cosmos-2251-debris",
        "lat": -3.2832109887851253,
        "lon": -34.0297576705112,
        "alt_km": 770.2453759018235,
        "timestamp": "2025-12-12T07:43:20.910218+00:00",
        "meta_object_name": "COSMOS 2251 DEB",
        "meta_object_id": "1993-036TT",
        "meta_epoch": "2025-12-11T23:29:16.389024",
        "meta_mean_motion": 14.06404638,
        "meta_eccentricity": 0.01982625,
        "meta_inclination": 74.0782,
        "meta_ra_of_asc_node": 327.5072,
        "meta_arg_of_pericenter": 41.5749,
        "meta_mean_anomaly": 20.1974,
        "meta_ephemeris_type": 0,
        "meta_classification_type": "U",
        "meta_norad_cat_id": 34474,
        "meta_element_set_no": 999,
        "meta_rev_at_epoch": 85498,
        "meta_bstar": 0.0028350382,
        "meta_mean_motion_dot": 5.574e-05,
        "meta_mean_motion_ddot": 0,
        "tle_line1": "1 34474U 93036TT  25345.97866191  .00005574  00000+0  28350-2 0  9999",
        "tle_line2": "2 34474  74.0782 327.5072 0198262  41.5749  20.1974 14.06404638854989"
      },
      "geometry": {
        "type": "Point",
        "coordinates": [
          -34.0297576705112,
          -3.2832109887851253
        ]
      }
    },
    {
      "type": "Feature",
      "properties": {
        "norad_id": 34476,
        "name": "COSMOS 2251 DEB",
        "group": "cosmos-2251-debris",
        "lat": 9.420373872709353,
        "lon": 85.93745836227414,
        "alt_km": 860.1923432009498,
        "timestamp": "2025-12-12T07:43:20.910234+00:00",
        "meta_object_name": "COSMOS 2251 DEB",
        "meta_object_id": "1993-036TV",
        "meta_epoch": "2025-12-09T17:08:07.616256",
        "meta_mean_motion": 13.81979993,
        "meta_eccentricity": 0.03198793,
        "meta_inclination": 74.0051,
        "meta_ra_of_asc_node": 87.6033,
        "meta_arg_of_pericenter": 307.827,
        "meta_mean_anomaly": 49.429,
        "meta_ephemeris_type": 0,
        "meta_classification_type": "U",
        "meta_norad_cat_id": 34476,
        "meta_element_set_no": 999,
        "meta_rev_at_epoch": 83596,
        "meta_bstar": 0.0043301307,
        "meta_mean_motion_dot": 6.851e-05,
        "meta_mean_motion_ddot": 0,
        "tle_line1": "1 34476U 93036TV  25343.71397704  .00006851  00000+0  43301-2 0  9992",
        "tle_line2": "2 34476  74.0051  87.6033 0319879 307.8270  49.4290 13.81979993835962"
      },
      "geometry": {
        "type": "Point",
        "coordinates": [
          85.93745836227414,
          9.420373872709353
        ]
      }
    },
    {
      "type": "Feature",
      "properties": {
        "norad_id": 34477,
        "name": "COSMOS 2251 DEB",
        "group": "cosmos-2251-debris",
        "lat": 30.883197231620265,
        "lon": -119.59695345204527,
        "alt_km": 719.4241389387671,
        "timestamp": "2025-12-12T07:43:20.910246+00:00",
        "meta_object_name": "COSMOS 2251 DEB",
        "meta_object_id": "1993-036TW",
        "meta_epoch": "2025-12-11T08:15:25.533792",
        "meta_mean_motion": 14.56849599,
        "meta_eccentricity": 0.00768957,
        "meta_inclination": 73.9789,
        "meta_ra_of_asc_node": 72.1607,
        "meta_arg_of_pericenter": 259.5799,
        "meta_mean_anomaly": 163.1164,
        "meta_ephemeris_type": 0,
        "meta_classification_type": "U",
        "meta_norad_cat_id": 34477,
        "meta_element_set_no": 999,
        "meta_rev_at_epoch": 88605,
        "meta_bstar": 0.0015311907,
        "meta_mean_motion_dot": 7.12e-05,
        "meta_mean_motion_ddot": 0,
        "tle_line1": "1 34477U 93036TW  25345.34404553  .00007120  00000+0  15312-2 0  9996",
        "tle_line2": "2 34477  73.9789  72.1607 0076895 259.5799 163.1164 14.56849599886053"
      },
      "geometry": {
        "type": "Point",
        "coordinates": [
          -119.59695345204527,
          30.883197231620265
        ]
      }
    }
  ]
}